AEROCUBE 6A             
1 40045U 14033AM  26068.93083119  .00007845  00000+0  67890-3 0  9996
2 40045  97.7128 237.0691 0038730 349.0559  10.9816 14.96848607631764
STARLINK-5483           
1 55643U 23021R   26068.73564083  .00000332  00000+0  35601-4 0  9995
2 55643  70.0008 184.5203 0003216 267.5400  92.5391 14.98333011168792
